[{"OBJECT_NAME":"SITRO-AIS 5 (KATYS)","OBJECT_ID":"2023-091L","EPOCH":"2026-03-09T22:36:44.932608","MEAN_MOTION":15.27079182,"ECCENTRICITY":0.00133776,"INCLINATION":97.5176,"RA_OF_ASC_NODE":132.0172,"ARG_OF_PERICENTER":94.5677,"MEAN_ANOMALY":265.709,"EPHEMERIS_TYPE":0,"CLASSIFICATION_TYPE":"U","NORAD_CAT_ID":57176,"ELEMENT_SET_NO":999,"REV_AT_EPOCH":14918,"BSTAR":0.00057530772,"MEAN_MOTION_DOT":0.00015262,"MEAN_MOTION_DDOT":0},{"OBJECT_NAME":"STARLINK-34044","OBJECT_ID":"2025-093L","EPOCH":"2026-03-09T02:12:37.617984","MEAN_MOTION":15.27604612,"ECCENTRICITY":0.00030997,"INCLINATION":42.9978,"RA_OF_ASC_NODE":81.0209,"ARG_OF_PERICENTER":158.4555,"MEAN_ANOMALY":201.6427,"EPHEMERIS_TYPE":0,"CLASSIFICATION_TYPE":"U","NORAD_CAT_ID":63846,"ELEMENT_SET_NO":999,"REV_AT_EPOCH":4766,"BSTAR":0.0012279946,"MEAN_MOTION_DOT":0.00033712,"MEAN_MOTION_DDOT":0}]
